TOMORROW-S2             
1 60485U 24149T   26068.75188364  .00008133  00000+0  27683-3 0  9990
2 60485  97.3857 150.0385 0001648 234.3331 125.7757 15.30674935 86869
STARLINK-34934          
1 65897U 25224R   26068.27912694  .00023731  00000+0  81098-3 0  9996
2 65897  53.1605  13.0952 0001412  84.2251 275.8911 15.30192145 24760
